OBJECT_NAME,OBJECT_ID,EPOCH,MEAN_MOTION,ECCENTRICITY,INCLINATION,RA_OF_ASC_NODE,ARG_OF_PERICENTER,MEAN_ANOMALY,EPHEMERIS_TYPE,CLASSIFICATION_TYPE,NORAD_CAT_ID,ELEMENT_SET_NO,REV_AT_EPOCH,BSTAR,MEAN_MOTION_DOT,MEAN_MOTION_DDOT
ION SCV-010,2023-054Q,2026-06-18T22:19:29.338752,15.26208339,.00123609,97.3777,59.4093,190.7187,169.3791,0,U,56192,999,17646,.13619068E-3,.3457E-4,0
HAWK-7B,2023-054R,2026-06-18T22:40:21.467424,15.27373119,.0003643,97.2721,55.5017,65.6972,294.4648,0,U,56193,999,17729,.16507729E-3,.4352E-4,0
HAWK-7C,2023-054Y,2026-06-18T22:40:11.714592,15.27374357,.00035749,97.2699,56.2698,56.9116,303.2466,0,U,56200,999,17729,.16045119E-3,.4228E-4,0
NUSAT-39 (TIKVAH ALPER),2023-054Z,2026-06-18T23:39:31.385088,15.46694257,.00061982,97.3117,79.7515,56.2410,303.9429,0,U,56201,999,17873,.42253461E-3,.21059E-3,0
NUSAT-38 (MARIA AGNESI),2023-054AA,2026-06-18T21:40:37.964352,15.49624345,.00138454,97.3053,80.3034,60.7251,299.5382,0,U,56202,999,17877,.46559096E-3,.258E-3,0
NUSAT-37 (JOAN CLARKE),2023-054AB,2026-06-18T21:42:33.636672,15.57335119,.00032496,97.2633,77.0175,245.4788,114.6130,0,U,56203,999,17891,.47857363E-3,.34968E-3,0
GHGSAT-C6,2023-054AC,2026-06-18T23:53:13.030080,15.52990378,.00073319,97.3046,79.9289,49.8272,310.3622,0,U,56204,999,17873,.20615727E-3,.12768E-3,0
GHGSAT-C7,2023-054AH,2026-06-19T00:06:34.154208,15.49914341,.00084246,97.3011,78.3985,41.3990,318.7899,0,U,56209,999,17867,.16356631E-3,.9055E-4,0
KEPLER-21,2023-054AS,2026-06-18T18:09:34.075296,16.00989102,.0004743,97.2862,90.0228,133.2637,226.9038,0,U,56218,999,17947,.50782218E-3,.271902E-2,.33196288E-4
AAC-HSI-SAT1,2023-054AZ,2026-06-18T22:47:28.171968,15.12531042,.00114131,97.3689,46.2626,114.6678,245.5743,0,U,56225,999,17563,.88853119E-4,.1487E-4,0
OUTPOST MISSION 1,2023-084BK,2026-06-18T22:31:45.324192,16.08215280,.00091574,97.5940,334.0736,247.9544,112.0766,0,U,56226,999,16930,.67848384E-3,.563413E-2,.1619699E-3
FENGYUN 3G,2023-055A,2026-06-18T23:20:51.425088,15.52697513,.00070099,49.9936,336.8195,303.8108,56.2191,0,U,56232,999,18028,.30512588E-3,.18797E-3,0
STARLINK-30107,2023-056B,2026-06-18T17:52:59.383200,15.27573189,.00003705,42.9987,340.4453,202.4270,157.6566,0,U,56287,999,17575,.4310861E-5,-.143E-5,0
STARLINK-30106,2023-056C,2026-06-17T22:46:49.141632,15.27576627,.00015048,43.0041,2.6942,267.9423,92.1256,0,U,56288,999,17537,.13850725E-4,.119E-5,0
STARLINK-30095,2023-056D,2026-06-18T18:08:50.893440,15.27578803,.00014724,43.0042,332.2663,273.8097,86.2586,0,U,56289,999,17579,.16262499E-4,.185E-5,0
STARLINK-30103,2023-056E,2026-06-18T19:16:23.936448,15.27577423,.00015555,43.0078,357.9155,276.8602,83.2073,0,U,56290,999,17550,-.13618539E-4,-.637E-5,0
STARLINK-30113,2023-056F,2026-06-18T19:05:18.048192,15.27575367,.00016934,43.0040,357.8553,270.5789,89.4868,0,U,56291,999,17550,.2275262E-4,.364E-5,0
STARLINK-30098,2023-056G,2026-06-18T13:05:19.548096,15.27581700,.000178,43.0049,359.4055,270.4936,89.5711,0,U,56292,999,17546,.69482E-4,.165E-4,0
STARLINK-30049,2023-056J,2026-06-17T23:18:15.303744,15.27575371,.00010931,43.0086,2.7756,283.9932,76.0799,0,U,56294,999,17537,.1782139E-4,.228E-5,0
STARLINK-30083,2023-056K,2026-06-18T17:50:32.757216,15.27587078,.00012894,43.0051,333.0122,279.6863,80.3843,0,U,56295,999,17577,.97878106E-4,.2433E-4,0
STARLINK-30089,2023-056L,2026-06-18T18:09:46.960992,15.27578346,.0001466,43.0005,318.3624,264.0129,96.0556,0,U,56296,999,17595,.26701441E-4,.473E-5,0
STARLINK-30086,2023-056M,2026-06-18T19:34:52.942656,15.27579348,.0000789,43.0029,357.9306,261.8403,98.2359,0,U,56297,999,17550,.16647809E-4,.196E-5,0
STARLINK-30109,2023-056N,2026-06-18T18:57:52.861824,15.27579351,.00011024,43.0030,357.7446,249.7377,110.3356,0,U,56298,999,17556,.1214029E-4,.72E-6,0
STARLINK-30108,2023-056P,2026-06-18T13:12:43.968096,15.27571690,.0001845,43.0069,348.1005,260.4656,99.5988,0,U,56299,999,17565,-.17552E-4,-.745E-5,0
STARLINK-30104,2023-056Q,2026-06-18T22:39:31.502304,15.27569518,.00010213,43.0043,357.2536,266.8168,93.2567,0,U,56300,999,17558,-.9439267E-5,-.522E-5,0
STARLINK-30101,2023-056R,2026-06-18T19:55:16.701024,15.28359611,.00022342,43.0030,357.2446,295.0808,64.9812,0,U,56301,999,17557,.73179706E-3,.20416E-3,0
STARLINK-30111,2023-056S,2026-06-17T22:20:53.203776,15.27583127,.00014786,43.0060,2.4775,273.7945,86.2737,0,U,56302,999,17543,.58854161E-4,.1358E-4,0
STARLINK-30099,2023-056U,2026-06-18T21:58:47.547840,15.27573028,.00016183,43.0054,356.9549,266.1781,93.8886,0,U,56304,999,17558,.9604978E-5,.2E-7,0
STARLINK-30094,2023-056V,2026-06-18T22:08:02.849280,15.27564229,.00012088,43.0044,356.9907,269.9517,90.1196,0,U,56305,999,17558,-.47031606E-4,-.1555E-4,0
STARLINK-30112,2023-056W,2026-06-16T07:01:22.773216,15.27593402,.00042708,43.0133,11.6780,273.4980,86.5384,0,U,56306,999,17518,.50999423E-4,.1141E-4,0
