ION SCV-010             
1 56192U 23054Q   26169.93020068  .00003457  00000+0  13619-3 0  9990
2 56192  97.3777  59.4093 0012360 190.7187 169.3791 15.26208339176469
HAWK-7B                 
1 56193U 23054R   26169.94469291  .00004352  00000+0  16508-3 0  9992
2 56193  97.2721  55.5017 0003643  65.6972 294.4648 15.27373119177290
HAWK-7C                 
1 56200U 23054Y   26169.94458003  .00004228  00000+0  16045-3 0  9998
2 56200  97.2699  56.2698 0003574  56.9116 303.2466 15.27374357177294
NUSAT-39 (TIKVAH ALPER) 
1 56201U 23054Z   26169.98577992  .00021059  00000+0  42253-3 0  9993
2 56201  97.3117  79.7515 0006198  56.2410 303.9429 15.46694257178735
NUSAT-38 (MARIA AGNESI) 
1 56202U 23054AA  26169.90321718  .00025800  00000+0  46559-3 0  9990
2 56202  97.3053  80.3034 0013845  60.7251 299.5382 15.49624345178775
NUSAT-37 (JOAN CLARKE)  
1 56203U 23054AB  26169.90455598  .00034968  00000+0  47857-3 0  9992
2 56203  97.2633  77.0175 0003249 245.4788 114.6130 15.57335119178913
GHGSAT-C6               
1 56204U 23054AC  26169.99528970  .00012768  00000+0  20616-3 0  9995
2 56204  97.3046  79.9289 0007331  49.8272 310.3622 15.52990378178730
GHGSAT-C7               
1 56209U 23054AH  26170.00456197  .00009055  00000+0  16357-3 0  9997
2 56209  97.3011  78.3985 0008424  41.3990 318.7899 15.49914341178674
KEPLER-21               
1 56218U 23054AS  26169.75664439  .00271902  33196-4  50782-3 0  9996
2 56218  97.2862  90.0228 0004743 133.2637 226.9038 16.00989102179476
AAC-HSI-SAT1            
1 56225U 23054AZ  26169.94963162  .00001487  00000+0  88853-4 0  9993
2 56225  97.3689  46.2626 0011413 114.6678 245.5743 15.12531042175639
OUTPOST MISSION 1       
1 56226U 23084BK  26169.93871903  .00563413  16197-3  67848-3 0  9997
2 56226  97.5940 334.0736 0009157 247.9544 112.0766 16.08215280169305
FENGYUN 3G              
1 56232U 23055A   26169.97281742  .00018797  00000+0  30513-3 0  9993
2 56232  49.9936 336.8195 0007009 303.8108  56.2191 15.52697513180281
STARLINK-30107          
1 56287U 23056B   26169.74513175 -.00000143  00000+0  43109-5 0  9991
2 56287  42.9987 340.4453 0000370 202.4270 157.6566 15.27573189175758
STARLINK-30106          
1 56288U 23056C   26168.94917988  .00000119  00000+0  13851-4 0  9995
2 56288  43.0041   2.6942 0001504 267.9423  92.1256 15.27576627175375
STARLINK-30095          
1 56289U 23056D   26169.75614460  .00000185  00000+0  16262-4 0  9997
2 56289  43.0042 332.2663 0001472 273.8097  86.2586 15.27578803175790
STARLINK-30103          
1 56290U 23056E   26169.80305482 -.00000637  00000+0 -13619-4 0  9993
2 56290  43.0078 357.9155 0001555 276.8602  83.2073 15.27577423175502
STARLINK-30113          
1 56291U 23056F   26169.79534778  .00000364  00000+0  22753-4 0  9998
2 56291  43.0040 357.8553 0001693 270.5789  89.4868 15.27575367175508
STARLINK-30098          
1 56292U 23056G   26169.54536514  .00001650  00000+0  69482-4 0  9991
2 56292  43.0049 359.4055 0001780 270.4936  89.5711 15.27581700175464
STARLINK-30049          
1 56294U 23056J   26168.97101046  .00000228  00000+0  17821-4 0  9997
2 56294  43.0086   2.7756 0001093 283.9932  76.0799 15.27575371175379
STARLINK-30083          
1 56295U 23056K   26169.74343469  .00002433  00000+0  97878-4 0  9991
2 56295  43.0051 333.0122 0001289 279.6863  80.3843 15.27587078175770
STARLINK-30089          
1 56296U 23056L   26169.75679353  .00000473  00000+0  26701-4 0  9996
2 56296  43.0005 318.3624 0001466 264.0129  96.0556 15.27578346175956
STARLINK-30086          
1 56297U 23056M   26169.81589054  .00000196  00000+0  16648-4 0  9993
2 56297  43.0029 357.9306 0000789 261.8403  98.2359 15.27579348175505
STARLINK-30109          
1 56298U 23056N   26169.79019516  .00000072  00000+0  12140-4 0  9998
2 56298  43.0030 357.7446 0001102 249.7377 110.3356 15.27579351175569
STARLINK-30108          
1 56299U 23056P   26169.55050889 -.00000745  00000+0 -17552-4 0  9992
2 56299  43.0069 348.1005 0001845 260.4656  99.5988 15.27571690175658
STARLINK-30104          
1 56300U 23056Q   26169.94411461 -.00000522  00000+0 -94393-5 0  9997
2 56300  43.0043 357.2536 0001021 266.8168  93.2567 15.27569518175589
STARLINK-30101          
1 56301U 23056R   26169.83005441  .00020416  00000+0  73180-3 0  9994
2 56301  43.0030 357.2446 0002234 295.0808  64.9812 15.28359611175577
STARLINK-30111          
1 56302U 23056S   26168.93117134  .00001358  00000+0  58854-4 0  9994
2 56302  43.0060   2.4775 0001478 273.7945  86.2737 15.27583127175437
STARLINK-30099          
1 56304U 23056U   26169.91582810  .00000002  00000+0  96050-5 0  9998
2 56304  43.0054 356.9549 0001618 266.1781  93.8886 15.27573028175582
STARLINK-30094          
1 56305U 23056V   26169.92225520 -.00001555  00000+0 -47032-4 0  9993
2 56305  43.0044 356.9907 0001208 269.9517  90.1196 15.27564229175580
STARLINK-30112          
1 56306U 23056W   26167.29262469  .00001141  00000+0  50999-4 0  9990
2 56306  43.0133  11.6780 0004270 273.4980  86.5384 15.27593402175189
